CCSDS_OMM_VERS = 2.0
CREATION_DATE  = 
ORIGINATOR     = 

OBJECT_NAME    = STARLINK-35485
OBJECT_ID      = 2025-245T
CENTER_NAME    = EARTH
REF_FRAME      = TEME
TIME_SYSTEM    = UTC
MEAN_ELEMENT_THEORY = SGP/SGP4

EPOCH          = 2025-11-25T11:46:55.439616
MEAN_MOTION    = 15.49302046
ECCENTRICITY   = .0001335
INCLINATION    = 53.1608
RA_OF_ASC_NODE = 50.6941
ARG_OF_PERICENTER = 71.2286
MEAN_ANOMALY   = 288.8868

EPHEMERIS_TYPE = 0
CLASSIFICATION_TYPE = U
NORAD_CAT_ID   = 66251
ELEMENT_SET_NO = 999
REV_AT_EPOCH   = 505
BSTAR          = .20798E-2
MEAN_MOTION_DOT = .116942E-2
MEAN_MOTION_DDOT = 0

CCSDS_OMM_VERS = 2.0
CREATION_DATE  = 
ORIGINATOR     = 

OBJECT_NAME    = STARLINK-35483
OBJECT_ID      = 2025-245U
CENTER_NAME    = EARTH
REF_FRAME      = TEME
TIME_SYSTEM    = UTC
MEAN_ELEMENT_THEORY = SGP/SGP4

EPOCH          = 2025-11-26T04:47:44.736576
MEAN_MOTION    = 15.49358903
ECCENTRICITY   = .000124
INCLINATION    = 53.1603
RA_OF_ASC_NODE = 47.2969
ARG_OF_PERICENTER = 96.5793
MEAN_ANOMALY   = 263.5357

EPHEMERIS_TYPE = 0
CLASSIFICATION_TYPE = U
NORAD_CAT_ID   = 66252
ELEMENT_SET_NO = 999
REV_AT_EPOCH   = 532
BSTAR          = .17282E-2
MEAN_MOTION_DOT = .97038E-3
MEAN_MOTION_DDOT = 0

CCSDS_OMM_VERS = 2.0
CREATION_DATE  = 
ORIGINATOR     = 

OBJECT_NAME    = STARLINK-35486
OBJECT_ID      = 2025-245V
CENTER_NAME    = EARTH
REF_FRAME      = TEME
TIME_SYSTEM    = UTC
MEAN_ELEMENT_THEORY = SGP/SGP4

EPOCH          = 2025-11-25T13:18:19.933632
MEAN_MOTION    = 15.49309162
ECCENTRICITY   = .0001059
INCLINATION    = 53.1605
RA_OF_ASC_NODE = 50.3782
ARG_OF_PERICENTER = 81.4006
MEAN_ANOMALY   = 278.7123

EPHEMERIS_TYPE = 0
CLASSIFICATION_TYPE = U
NORAD_CAT_ID   = 66253
ELEMENT_SET_NO = 999
REV_AT_EPOCH   = 506
BSTAR          = .20551E-2
MEAN_MOTION_DOT = .115554E-2
MEAN_MOTION_DDOT = 0

CCSDS_OMM_VERS = 2.0
CREATION_DATE  = 
ORIGINATOR     = 

OBJECT_NAME    = STARLINK-35488
OBJECT_ID      = 2025-245W
CENTER_NAME    = EARTH
REF_FRAME      = TEME
TIME_SYSTEM    = UTC
MEAN_ELEMENT_THEORY = SGP/SGP4

EPOCH          = 2025-11-26T04:46:45.315840
MEAN_MOTION    = 15.49400714
ECCENTRICITY   = .0001327
INCLINATION    = 53.1614
RA_OF_ASC_NODE = 47.2920
ARG_OF_PERICENTER = 112.4599
MEAN_ANOMALY   = 247.6551

EPHEMERIS_TYPE = 0
CLASSIFICATION_TYPE = U
NORAD_CAT_ID   = 66254
ELEMENT_SET_NO = 999
REV_AT_EPOCH   = 537
BSTAR          = .24707E-2
MEAN_MOTION_DOT = .139902E-2
MEAN_MOTION_DDOT = 0

CCSDS_OMM_VERS = 2.0
CREATION_DATE  = 
ORIGINATOR     = 

OBJECT_NAME    = STARLINK-35616
OBJECT_ID      = 2025-245X
CENTER_NAME    = EARTH
REF_FRAME      = TEME
TIME_SYSTEM    = UTC
MEAN_ELEMENT_THEORY = SGP/SGP4

EPOCH          = 2025-11-25T13:17:20.836032
MEAN_MOTION    = 15.49309529
ECCENTRICITY   = .0001845
INCLINATION    = 53.1614
RA_OF_ASC_NODE = 50.3736
ARG_OF_PERICENTER = 44.6597
MEAN_ANOMALY   = 315.4561

EPHEMERIS_TYPE = 0
CLASSIFICATION_TYPE = U
NORAD_CAT_ID   = 66255
ELEMENT_SET_NO = 999
REV_AT_EPOCH   = 527
BSTAR          = .15998E-2
MEAN_MOTION_DOT = .89554E-3
MEAN_MOTION_DDOT = 0

CCSDS_OMM_VERS = 2.0
CREATION_DATE  = 
ORIGINATOR     = 

OBJECT_NAME    = STARLINK-35619
OBJECT_ID      = 2025-245Y
CENTER_NAME    = EARTH
REF_FRAME      = TEME
TIME_SYSTEM    = UTC
MEAN_ELEMENT_THEORY = SGP/SGP4

EPOCH          = 2025-11-25T13:15:51.895008
MEAN_MOTION    = 15.49306420
ECCENTRICITY   = .0002269
INCLINATION    = 53.1613
RA_OF_ASC_NODE = 50.3668
ARG_OF_PERICENTER = 42.8813
MEAN_ANOMALY   = 317.2372

EPHEMERIS_TYPE = 0
CLASSIFICATION_TYPE = U
NORAD_CAT_ID   = 66256
ELEMENT_SET_NO = 999
REV_AT_EPOCH   = 527
BSTAR          = .19691E-2
MEAN_MOTION_DOT = .110621E-2
MEAN_MOTION_DDOT = 0

CCSDS_OMM_VERS = 2.0
CREATION_DATE  = 
ORIGINATOR     = 

OBJECT_NAME    = STARLINK-35615
OBJECT_ID      = 2025-245Z
CENTER_NAME    = EARTH
REF_FRAME      = TEME
TIME_SYSTEM    = UTC
MEAN_ELEMENT_THEORY = SGP/SGP4

EPOCH          = 2025-11-25T13:16:21.467136
MEAN_MOTION    = 15.49303169
ECCENTRICITY   = .000192
INCLINATION    = 53.1614
RA_OF_ASC_NODE = 50.3696
ARG_OF_PERICENTER = 47.0594
MEAN_ANOMALY   = 313.0576

EPHEMERIS_TYPE = 0
CLASSIFICATION_TYPE = U
NORAD_CAT_ID   = 66257
ELEMENT_SET_NO = 999
REV_AT_EPOCH   = 527
BSTAR          = .1551E-2
MEAN_MOTION_DOT = .86759E-3
MEAN_MOTION_DDOT = 0

CCSDS_OMM_VERS = 2.0
CREATION_DATE  = 
ORIGINATOR     = 

OBJECT_NAME    = STARLINK-34650
OBJECT_ID      = 2025-245AA
CENTER_NAME    = EARTH
REF_FRAME      = TEME
TIME_SYSTEM    = UTC
MEAN_ELEMENT_THEORY = SGP/SGP4

EPOCH          = 2025-11-25T13:16:52.464000
MEAN_MOTION    = 15.49329570
ECCENTRICITY   = .0001391
INCLINATION    = 53.1613
RA_OF_ASC_NODE = 50.3708
ARG_OF_PERICENTER = 66.2367
MEAN_ANOMALY   = 293.8788

EPHEMERIS_TYPE = 0
CLASSIFICATION_TYPE = U
NORAD_CAT_ID   = 66258
ELEMENT_SET_NO = 999
REV_AT_EPOCH   = 527
BSTAR          = .24178E-2
MEAN_MOTION_DOT = .136494E-2
MEAN_MOTION_DDOT = 0

CCSDS_OMM_VERS = 2.0
CREATION_DATE  = 
ORIGINATOR     = 

OBJECT_NAME    = STARLINK-35529
OBJECT_ID      = 2025-245AB
CENTER_NAME    = EARTH
REF_FRAME      = TEME
TIME_SYSTEM    = UTC
MEAN_ELEMENT_THEORY = SGP/SGP4

EPOCH          = 2025-11-26T04:43:47.329248
MEAN_MOTION    = 15.49379739
ECCENTRICITY   = .0001152
INCLINATION    = 53.1607
RA_OF_ASC_NODE = 47.2781
ARG_OF_PERICENTER = 97.0763
MEAN_ANOMALY   = 263.0377

EPHEMERIS_TYPE = 0
CLASSIFICATION_TYPE = U
NORAD_CAT_ID   = 66259
ELEMENT_SET_NO = 999
REV_AT_EPOCH   = 537
BSTAR          = .21081E-2
MEAN_MOTION_DOT = .118889E-2
MEAN_MOTION_DDOT = 0

CCSDS_OMM_VERS = 2.0
CREATION_DATE  = 
ORIGINATOR     = 

OBJECT_NAME    = STARLINK-35420
OBJECT_ID      = 2025-245AC
CENTER_NAME    = EARTH
REF_FRAME      = TEME
TIME_SYSTEM    = UTC
MEAN_ELEMENT_THEORY = SGP/SGP4

EPOCH          = 2025-11-25T13:15:22.145760
MEAN_MOTION    = 15.49304645
ECCENTRICITY   = .0001756
INCLINATION    = 53.1607
RA_OF_ASC_NODE = 50.3639
ARG_OF_PERICENTER = 51.5340
MEAN_ANOMALY   = 308.5826

EPHEMERIS_TYPE = 0
CLASSIFICATION_TYPE = U
NORAD_CAT_ID   = 66260
ELEMENT_SET_NO = 999
REV_AT_EPOCH   = 527
BSTAR          = .14305E-2
MEAN_MOTION_DOT = .79916E-3
MEAN_MOTION_DDOT = 0

CCSDS_OMM_VERS = 2.0
CREATION_DATE  = 
ORIGINATOR     = 

OBJECT_NAME    = STARLINK-35536
OBJECT_ID      = 2025-245AD
CENTER_NAME    = EARTH
REF_FRAME      = TEME
TIME_SYSTEM    = UTC
MEAN_ELEMENT_THEORY = SGP/SGP4

EPOCH          = 2025-11-25T13:14:22.990272
MEAN_MOTION    = 15.49309039
ECCENTRICITY   = .0002599
INCLINATION    = 53.1613
RA_OF_ASC_NODE = 50.3598
ARG_OF_PERICENTER = 38.8636
MEAN_ANOMALY   = 321.2559

EPHEMERIS_TYPE = 0
CLASSIFICATION_TYPE = U
NORAD_CAT_ID   = 66261
ELEMENT_SET_NO = 999
REV_AT_EPOCH   = 527
BSTAR          = .20385E-2
MEAN_MOTION_DOT = .11461E-2
MEAN_MOTION_DDOT = 0

CCSDS_OMM_VERS = 2.0
CREATION_DATE  = 
ORIGINATOR     = 

OBJECT_NAME    = STARLINK-35487
OBJECT_ID      = 2025-245AE
CENTER_NAME    = EARTH
REF_FRAME      = TEME
TIME_SYSTEM    = UTC
MEAN_ELEMENT_THEORY = SGP/SGP4

EPOCH          = 2025-11-25T20:58:20.595936
MEAN_MOTION    = 15.49334317
ECCENTRICITY   = .000118
INCLINATION    = 53.1609
RA_OF_ASC_NODE = 48.8149
ARG_OF_PERICENTER = 86.7593
MEAN_ANOMALY   = 273.3551

EPHEMERIS_TYPE = 0
CLASSIFICATION_TYPE = U
NORAD_CAT_ID   = 66262
ELEMENT_SET_NO = 999
REV_AT_EPOCH   = 527
BSTAR          = .19026E-2
MEAN_MOTION_DOT = .106918E-2
MEAN_MOTION_DDOT = 0

CCSDS_OMM_VERS = 2.0
CREATION_DATE  = 
ORIGINATOR     = 

OBJECT_NAME    = STARLINK-35801
OBJECT_ID      = 2025-247A
CENTER_NAME    = EARTH
REF_FRAME      = TEME
TIME_SYSTEM    = UTC
MEAN_ELEMENT_THEORY = SGP/SGP4

EPOCH          = 2025-11-26T03:43:47.161344
MEAN_MOTION    = 15.39631147
ECCENTRICITY   = .0001311
INCLINATION    = 53.1604
RA_OF_ASC_NODE = 315.7910
ARG_OF_PERICENTER = 92.2552
MEAN_ANOMALY   = 267.8603

EPHEMERIS_TYPE = 0
CLASSIFICATION_TYPE = U
NORAD_CAT_ID   = 66265
ELEMENT_SET_NO = 999
REV_AT_EPOCH   = 513
BSTAR          = .16118E-2
MEAN_MOTION_DOT = .64643E-3
MEAN_MOTION_DDOT = 0

CCSDS_OMM_VERS = 2.0
CREATION_DATE  = 
ORIGINATOR     = 

OBJECT_NAME    = STARLINK-35056
OBJECT_ID      = 2025-247B
CENTER_NAME    = EARTH
REF_FRAME      = TEME
TIME_SYSTEM    = UTC
MEAN_ELEMENT_THEORY = SGP/SGP4

EPOCH          = 2025-11-26T03:43:18.278688
MEAN_MOTION    = 15.39623597
ECCENTRICITY   = .0001418
INCLINATION    = 53.1608
RA_OF_ASC_NODE = 315.7883
ARG_OF_PERICENTER = 97.8025
MEAN_ANOMALY   = 262.3141

EPHEMERIS_TYPE = 0
CLASSIFICATION_TYPE = U
NORAD_CAT_ID   = 66266
ELEMENT_SET_NO = 999
REV_AT_EPOCH   = 513
BSTAR          = .14825E-2
MEAN_MOTION_DOT = .5937E-3
MEAN_MOTION_DDOT = 0

CCSDS_OMM_VERS = 2.0
CREATION_DATE  = 
ORIGINATOR     = 

OBJECT_NAME    = STARLINK-35550
OBJECT_ID      = 2025-247C
CENTER_NAME    = EARTH
REF_FRAME      = TEME
TIME_SYSTEM    = UTC
MEAN_ELEMENT_THEORY = SGP/SGP4

EPOCH          = 2025-11-26T04:00:03.000096
MEAN_MOTION    = 15.41102498
ECCENTRICITY   = .0001004
INCLINATION    = 53.1597
RA_OF_ASC_NODE = 314.3159
ARG_OF_PERICENTER = 107.3362
MEAN_ANOMALY   = 291.8680

EPHEMERIS_TYPE = 0
CLASSIFICATION_TYPE = U
NORAD_CAT_ID   = 66267
ELEMENT_SET_NO = 999
REV_AT_EPOCH   = 490
BSTAR          = -.55784E-1
MEAN_MOTION_DOT = -.2077781E-1
MEAN_MOTION_DDOT = 0

